GLOBALSTAR M094 [+]     
1 39074U 13005C   23317.80769054 -.00000081  00000+0  12475-3 0  9998
2 39074  51.9935 152.2469 0001231  89.2834 270.8173 12.62269901498958
GLOBALSTAR M096 [+]     
1 39075U 13005D   23318.13765223 -.00000060  00000+0  24366-3 0  9999
2 39075  52.0063 199.3037 0001299  72.8859 287.2150 12.62266220498267
GLOBALSTAR M078 [+]     
1 39076U 13005E   23317.95272266 -.00000103  00000+0  67590-5 0  9995
2 39076  51.9877 285.1649 0001111   0.6157 359.4710 12.62263048496510
GLOBALSTAR M095 [+]     
1 39077U 13005F   23318.05843194 -.00000099  00000+0  24537-4 0  9999
2 39077  51.9803 282.3293 0001113  30.4260 329.6671 12.62270607496741
GLOBALSTAR M087 [+]     
1 52888U 22064A   23318.15849266 -.00000077  00000+0  97701-4 0  9995
2 52888  51.9757 241.6530 0009260 171.8781 188.2271 13.37557855 68617
